IRIDIUM 119             
1 42959U 17061E   25300.03007719  .00000022  00000+0  70654-6 0  9992
2 42959  86.3937 122.7447 0002296  84.4319 275.7138 14.34217702421395
IRIDIUM 107             
1 42960U 17061F   25300.04910852  .00000123  00000+0  36857-4 0  9993
2 42960  86.3939 122.7567 0002119  76.0462 284.0969 14.34214824421401
IRIDIUM 132             
1 42961U 17061G   25299.98567725  .00000084  00000+0  22828-4 0  9990
2 42961  86.3937 122.7643 0002031  85.6461 274.4967 14.34217013421395
IRIDIUM 136             
1 42962U 17061H   25300.01739088 -.00000037  00000+0 -20425-4 0  9992
2 42962  86.3940 122.7564 0002056  84.2198 275.9233 14.34217294421417
IRIDIUM 139             
1 42963U 17061J   25300.02373427  .00000023  00000+0  11767-5 0  9998
2 42963  86.3940 122.8120 0001963  82.0285 278.1133 14.34217616421429
IRIDIUM 125             
1 42964U 17061K   25300.01104950 -.00000021  00000+0 -14503-4 0  9991
2 42964  86.3944 122.8741 0002290  75.7368 284.4082 14.34217312421435
IRIDIUM 135             
1 43070U 17083A   25300.05494454  .00000452  00000+0  15426-3 0  9999
2 43070  86.3965  59.4553 0001972  98.5972 261.5447 14.34218602410738
IRIDIUM 138             
1 43071U 17083B   25300.08031565  .00000136  00000+0  41561-4 0  9992
2 43071  86.3979  59.1039 0002469  92.1325 268.0153 14.34218013410725
